CCSDS_OMM_VERS = 2.0
CREATION_DATE  = 
ORIGINATOR     = 

OBJECT_NAME    = 2025-274B
OBJECT_ID      = 2025-274B
CENTER_NAME    = EARTH
REF_FRAME      = TEME
TIME_SYSTEM    = UTC
MEAN_ELEMENT_THEORY = SGP/SGP4

EPOCH          = 2025-12-13T14:57:48.379968
MEAN_MOTION    = 14.91809462
ECCENTRICITY   = .00105657
INCLINATION    = 97.7383
RA_OF_ASC_NODE = 274.7963
ARG_OF_PERICENTER = 246.8940
MEAN_ANOMALY   = 113.1166

EPHEMERIS_TYPE = 0
CLASSIFICATION_TYPE = U
NORAD_CAT_ID   = 66651
ELEMENT_SET_NO = 999
REV_AT_EPOCH   = 253
BSTAR          = .54045195E-3
MEAN_MOTION_DOT = .5403E-4
MEAN_MOTION_DDOT = 0

CCSDS_OMM_VERS = 2.0
CREATION_DATE  = 
ORIGINATOR     = 

OBJECT_NAME    = 2025-274C
OBJECT_ID      = 2025-274C
CENTER_NAME    = EARTH
REF_FRAME      = TEME
TIME_SYSTEM    = UTC
MEAN_ELEMENT_THEORY = SGP/SGP4

EPOCH          = 2025-12-13T16:32:14.047872
MEAN_MOTION    = 14.91907580
ECCENTRICITY   = .00102288
INCLINATION    = 97.7386
RA_OF_ASC_NODE = 274.8652
ARG_OF_PERICENTER = 253.7516
MEAN_ANOMALY   = 106.2578

EPHEMERIS_TYPE = 0
CLASSIFICATION_TYPE = U
NORAD_CAT_ID   = 66652
ELEMENT_SET_NO = 999
REV_AT_EPOCH   = 254
BSTAR          = .40909228E-3
MEAN_MOTION_DOT = .4086E-4
MEAN_MOTION_DDOT = 0

CCSDS_OMM_VERS = 2.0
CREATION_DATE  = 
ORIGINATOR     = 

OBJECT_NAME    = 2025-274D
OBJECT_ID      = 2025-274D
CENTER_NAME    = EARTH
REF_FRAME      = TEME
TIME_SYSTEM    = UTC
MEAN_ELEMENT_THEORY = SGP/SGP4

EPOCH          = 2025-12-13T16:32:07.226592
MEAN_MOTION    = 14.91915015
ECCENTRICITY   = .00111374
INCLINATION    = 97.7386
RA_OF_ASC_NODE = 274.8649
ARG_OF_PERICENTER = 249.7013
MEAN_ANOMALY   = 110.3010

EPHEMERIS_TYPE = 0
CLASSIFICATION_TYPE = U
NORAD_CAT_ID   = 66653
ELEMENT_SET_NO = 999
REV_AT_EPOCH   = 254
BSTAR          = .39953911E-3
MEAN_MOTION_DOT = .399E-4
MEAN_MOTION_DDOT = 0

CCSDS_OMM_VERS = 2.0
CREATION_DATE  = 
ORIGINATOR     = 

OBJECT_NAME    = JACK E
OBJECT_ID      = 2025-274E
CENTER_NAME    = EARTH
REF_FRAME      = TEME
TIME_SYSTEM    = UTC
MEAN_ELEMENT_THEORY = SGP/SGP4

EPOCH          = 2025-12-12T17:57:23.787072
MEAN_MOTION    = 14.92083468
ECCENTRICITY   = .00117279
INCLINATION    = 97.7387
RA_OF_ASC_NODE = 273.9456
ARG_OF_PERICENTER = 255.0239
MEAN_ANOMALY   = 104.9682

EPHEMERIS_TYPE = 0
CLASSIFICATION_TYPE = U
NORAD_CAT_ID   = 66654
ELEMENT_SET_NO = 999
REV_AT_EPOCH   = 240
BSTAR          = .49140414E-3
MEAN_MOTION_DOT = .4943E-4
MEAN_MOTION_DDOT = 0

CCSDS_OMM_VERS = 2.0
CREATION_DATE  = 
ORIGINATOR     = 

OBJECT_NAME    = 2025-274F
OBJECT_ID      = 2025-274F
CENTER_NAME    = EARTH
REF_FRAME      = TEME
TIME_SYSTEM    = UTC
MEAN_ELEMENT_THEORY = SGP/SGP4

EPOCH          = 2025-12-12T19:33:04.273920
MEAN_MOTION    = 14.91089281
ECCENTRICITY   = .00054102
INCLINATION    = 97.7325
RA_OF_ASC_NODE = 274.0134
ARG_OF_PERICENTER = 14.8803
MEAN_ANOMALY   = 345.2574

EPHEMERIS_TYPE = 0
CLASSIFICATION_TYPE = U
NORAD_CAT_ID   = 66655
ELEMENT_SET_NO = 999
REV_AT_EPOCH   = 241
BSTAR          = .2464325E-4
MEAN_MOTION_DOT = .189E-5
MEAN_MOTION_DDOT = 0

CCSDS_OMM_VERS = 2.0
CREATION_DATE  = 
ORIGINATOR     = 

OBJECT_NAME    = 2025-274G
OBJECT_ID      = 2025-274G
CENTER_NAME    = EARTH
REF_FRAME      = TEME
TIME_SYSTEM    = UTC
MEAN_ELEMENT_THEORY = SGP/SGP4

EPOCH          = 2025-12-13T08:23:33.130464
MEAN_MOTION    = 14.92282632
ECCENTRICITY   = .00123098
INCLINATION    = 97.7385
RA_OF_ASC_NODE = 274.5408
ARG_OF_PERICENTER = 254.5265
MEAN_ANOMALY   = 105.4595

EPHEMERIS_TYPE = 0
CLASSIFICATION_TYPE = U
NORAD_CAT_ID   = 66656
ELEMENT_SET_NO = 999
REV_AT_EPOCH   = 249
BSTAR          = .55491069E-3
MEAN_MOTION_DOT = .5618E-4
MEAN_MOTION_DDOT = 0

CCSDS_OMM_VERS = 2.0
CREATION_DATE  = 
ORIGINATOR     = 

OBJECT_NAME    = SPIRONE
OBJECT_ID      = 2025-274H
CENTER_NAME    = EARTH
REF_FRAME      = TEME
TIME_SYSTEM    = UTC
MEAN_ELEMENT_THEORY = SGP/SGP4

EPOCH          = 2025-12-13T08:20:40.703712
MEAN_MOTION    = 14.92461057
ECCENTRICITY   = .00106055
INCLINATION    = 97.7381
RA_OF_ASC_NODE = 274.5429
ARG_OF_PERICENTER = 273.7770
MEAN_ANOMALY   = 86.2237

EPHEMERIS_TYPE = 0
CLASSIFICATION_TYPE = U
NORAD_CAT_ID   = 66657
ELEMENT_SET_NO = 999
REV_AT_EPOCH   = 249
BSTAR          = .53040499E-3
MEAN_MOTION_DOT = .539E-4
MEAN_MOTION_DDOT = 0

CCSDS_OMM_VERS = 2.0
CREATION_DATE  = 
ORIGINATOR     = 

OBJECT_NAME    = 2025-274J
OBJECT_ID      = 2025-274J
CENTER_NAME    = EARTH
REF_FRAME      = TEME
TIME_SYSTEM    = UTC
MEAN_ELEMENT_THEORY = SGP/SGP4

EPOCH          = 2025-12-13T14:44:01.044672
MEAN_MOTION    = 14.92631279
ECCENTRICITY   = .00112028
INCLINATION    = 97.7384
RA_OF_ASC_NODE = 274.8092
ARG_OF_PERICENTER = 275.6136
MEAN_ANOMALY   = 84.3805

EPHEMERIS_TYPE = 0
CLASSIFICATION_TYPE = U
NORAD_CAT_ID   = 66658
ELEMENT_SET_NO = 999
REV_AT_EPOCH   = 253
BSTAR          = .41585971E-3
MEAN_MOTION_DOT = .4232E-4
MEAN_MOTION_DDOT = 0

CCSDS_OMM_VERS = 2.0
CREATION_DATE  = 
ORIGINATOR     = 

OBJECT_NAME    = JACK K
OBJECT_ID      = 2025-274K
CENTER_NAME    = EARTH
REF_FRAME      = TEME
TIME_SYSTEM    = UTC
MEAN_ELEMENT_THEORY = SGP/SGP4

EPOCH          = 2025-12-13T14:40:59.109600
MEAN_MOTION    = 14.92815978
ECCENTRICITY   = .0011962
INCLINATION    = 97.7385
RA_OF_ASC_NODE = 274.8124
ARG_OF_PERICENTER = 277.0731
MEAN_ANOMALY   = 82.9128

EPHEMERIS_TYPE = 0
CLASSIFICATION_TYPE = U
NORAD_CAT_ID   = 66659
ELEMENT_SET_NO = 999
REV_AT_EPOCH   = 253
BSTAR          = .40920362E-3
MEAN_MOTION_DOT = .4183E-4
MEAN_MOTION_DDOT = 0

CCSDS_OMM_VERS = 2.0
CREATION_DATE  = 
ORIGINATOR     = 

OBJECT_NAME    = K-HERO
OBJECT_ID      = 2025-274L
CENTER_NAME    = EARTH
REF_FRAME      = TEME
TIME_SYSTEM    = UTC
MEAN_ELEMENT_THEORY = SGP/SGP4

EPOCH          = 2025-12-13T08:12:29.308896
MEAN_MOTION    = 14.92964530
ECCENTRICITY   = .00125988
INCLINATION    = 97.7389
RA_OF_ASC_NODE = 274.5514
ARG_OF_PERICENTER = 278.5608
MEAN_ANOMALY   = 81.4184

EPHEMERIS_TYPE = 0
CLASSIFICATION_TYPE = U
NORAD_CAT_ID   = 66660
ELEMENT_SET_NO = 999
REV_AT_EPOCH   = 249
BSTAR          = .43661364E-3
MEAN_MOTION_DOT = .4485E-4
MEAN_MOTION_DDOT = 0

CCSDS_OMM_VERS = 2.0
CREATION_DATE  = 
ORIGINATOR     = 

OBJECT_NAME    = SNUGLITE-III
OBJECT_ID      = 2025-274M
CENTER_NAME    = EARTH
REF_FRAME      = TEME
TIME_SYSTEM    = UTC
MEAN_ELEMENT_THEORY = SGP/SGP4

EPOCH          = 2025-12-13T12:59:36.641184
MEAN_MOTION    = 14.93102786
ECCENTRICITY   = .0013293
INCLINATION    = 97.7386
RA_OF_ASC_NODE = 274.7510
ARG_OF_PERICENTER = 279.0275
MEAN_ANOMALY   = 80.9440

EPHEMERIS_TYPE = 0
CLASSIFICATION_TYPE = U
NORAD_CAT_ID   = 66661
ELEMENT_SET_NO = 999
REV_AT_EPOCH   = 252
BSTAR          = .33650955E-3
MEAN_MOTION_DOT = .3456E-4
MEAN_MOTION_DDOT = 0

CCSDS_OMM_VERS = 2.0
CREATION_DATE  = 
ORIGINATOR     = 

OBJECT_NAME    = 2025-274N
OBJECT_ID      = 2025-274N
CENTER_NAME    = EARTH
REF_FRAME      = TEME
TIME_SYSTEM    = UTC
MEAN_ELEMENT_THEORY = SGP/SGP4

EPOCH          = 2025-12-13T16:11:39.971616
MEAN_MOTION    = 14.93156940
ECCENTRICITY   = .00137061
INCLINATION    = 97.7386
RA_OF_ASC_NODE = 274.8838
ARG_OF_PERICENTER = 278.0291
MEAN_ANOMALY   = 81.9373

EPHEMERIS_TYPE = 0
CLASSIFICATION_TYPE = U
NORAD_CAT_ID   = 66662
ELEMENT_SET_NO = 999
REV_AT_EPOCH   = 254
BSTAR          = .38567177E-3
MEAN_MOTION_DOT = .3975E-4
MEAN_MOTION_DDOT = 0

