2025-274B               
1 66651U 25274B   25347.62347662  .00005403  00000+0  54045-3 0  9993
2 66651  97.7383 274.7963 0010565 246.8940 113.1166 14.91809462  2534
2025-274C               
1 66652U 25274C   25347.68905148  .00004086  00000+0  40909-3 0  9999
2 66652  97.7386 274.8652 0010228 253.7516 106.2578 14.91907580  2547
2025-274D               
1 66653U 25274D   25347.68897253  .00003990  00000+0  39954-3 0  9998
2 66653  97.7386 274.8649 0011137 249.7013 110.3010 14.91915015  2540
JACK E                  
1 66654U 25274E   25346.74819198  .00004943  00000+0  49140-3 0  9994
2 66654  97.7387 273.9456 0011727 255.0239 104.9682 14.92083468  2401
2025-274F               
1 66655U 25274F   25346.81463280  .00000189  00000+0  24643-4 0  9990
2 66655  97.7325 274.0134 0005410  14.8803 345.2574 14.91089281  2418
2025-274G               
1 66656U 25274G   25347.34968901  .00005618  00000+0  55491-3 0  9996
2 66656  97.7385 274.5408 0012309 254.5265 105.4595 14.92282632  2497
SPIRONE                 
1 66657U 25274H   25347.34769333  .00005390  00000+0  53040-3 0  9990
2 66657  97.7381 274.5429 0010605 273.7770  86.2237 14.92461057  2497
2025-274J               
1 66658U 25274J   25347.61390098  .00004232  00000+0  41586-3 0  9995
2 66658  97.7384 274.8092 0011202 275.6136  84.3805 14.92631279  2531
JACK K                  
1 66659U 25274K   25347.61179525  .00004183  00000+0  40920-3 0  9992
2 66659  97.7385 274.8124 0011962 277.0731  82.9128 14.92815978  2531
K-HERO                  
1 66660U 25274L   25347.34200589  .00004485  00000+0  43661-3 0  9999
2 66660  97.7389 274.5514 0012598 278.5608  81.4184 14.92964530  2492
SNUGLITE-III            
1 66661U 25274M   25347.54139631  .00003456  00000+0  33651-3 0  9996
2 66661  97.7386 274.7510 0013293 279.0275  80.9440 14.93102786  2528
2025-274N               
1 66662U 25274N   25347.67476819  .00003975  00000+0  38567-3 0  9990
2 66662  97.7386 274.8838 0013706 278.0291  81.9373 14.93156940  2548
